{"type": "FeatureCollection", "features": [ {"type": "Feature", "properties": {"norad_id": 66959, "name": "STARLINK-35887", "group": "last-30-days", "lat": -21.17576871074516, "lon": 63.613993654755234, "alt_km": 378.6271264089073, "timestamp": "2025-12-25T16:53:13.374328+00:00", "meta": {"OBJECT_NAME": "STARLINK-35887", "OBJECT_ID": "2025-288A", "EPOCH": "2025-12-25T06:00:04.000320", "MEAN_MOTION": 15.65582307, "ECCENTRICITY": 0.0001438, "INCLINATION": 43, "RA_OF_ASC_NODE": 90.8888, "ARG_OF_PERICENTER": 264.3876, "MEAN_ANOMALY": 25.7785, "EPHEMERIS_TYPE": 0, "CLASSIFICATION_TYPE": "U", "NORAD_CAT_ID": 66959, "ELEMENT_SET_NO": 999, "REV_AT_EPOCH": 384, "BSTAR": -0.02184603, "MEAN_MOTION_DOT": -0.01989009, "MEAN_MOTION_DDOT": 0}, "tle": {"line1": "1 66959U 25288A   25359.25004630 -.01989009  00000+0 -21846-1 0  9993", "line2": "2 66959  43.0000  90.8888 0001438 264.3876  25.7785 15.65582307  3848"}}, "geometry": {"type": "Point", "coordinates": [63.613993654755234, -21.17576871074516]}}, {"type": "Feature", "properties": {"norad_id": 66960, "name": "STARLINK-35879", "group": "last-30-days", "lat": -19.97983949422037, "lon": 65.2093862170154, "alt_km": 378.54683480553194, "timestamp": "2025-12-25T16:53:13.374338+00:00", "meta": {"OBJECT_NAME": "STARLINK-35879", "OBJECT_ID": "2025-288B", "EPOCH": "2025-12-25T06:00:04.000320", "MEAN_MOTION": 15.65579106, "ECCENTRICITY": 0.00014917, "INCLINATION": 43.0001, "RA_OF_ASC_NODE": 90.884, "ARG_OF_PERICENTER": 264.0905, "MEAN_ANOMALY": 27.9939, "EPHEMERIS_TYPE": 0, "CLASSIFICATION_TYPE": "U", "NORAD_CAT_ID": 66960, "ELEMENT_SET_NO": 999, "REV_AT_EPOCH": 384, "BSTAR": -0.021790014, "MEAN_MOTION_DOT": -0.01984339, "MEAN_MOTION_DDOT": 0}, "tle": {"line1": "1 66960U 25288B   25359.25004630 -.01984339  00000+0 -21790-1 0  9994", "line2": "2 66960  43.0001  90.8840 0001491 264.0905  27.9939 15.65579106  3846"}}, "geometry": {"type": "Point", "coordinates": [65.2093862170154, -19.97983949422037]}}, {"type": "Feature", "properties": {"norad_id": 66961, "name": "STARLINK-35761", "group": "last-30-days", "lat": -18.77086011526349, "lon": 66.77934495747378, "alt_km": 378.5252868742382, "timestamp": "2025-12-25T16:53:13.374347+00:00", "meta": {"OBJECT_NAME": "STARLINK-35761", "OBJECT_ID": "2025-288C", "EPOCH": "2025-12-25T06:00:04.000320", "MEAN_MOTION": 15.65582438, "ECCENTRICITY": 0.00014047, "INCLINATION": 43.0001, "RA_OF_ASC_NODE": 90.8795, "ARG_OF_PERICENTER": 263.4652, "MEAN_ANOMALY": 30.5355, "EPHEMERIS_TYPE": 0, "CLASSIFICATION_TYPE": "U", "NORAD_CAT_ID": 66961, "ELEMENT_SET_NO": 999, "REV_AT_EPOCH": 384, "BSTAR": -0.021854185, "MEAN_MOTION_DOT": -0.01989645, "MEAN_MOTION_DDOT": 0}, "tle": {"line1": "1 66961U 25288C   25359.25004630 -.01989645  00000+0 -21854-1 0  9991", "line2": "2 66961  43.0001  90.8795 0001404 263.4652  30.5355 15.65582438  3846"}}, "geometry": {"type": "Point", "coordinates": [66.77934495747378, -18.77086011526349]}}, {"type": "Feature", "properties": {"norad_id": 66962, "name": "STARLINK-35874", "group": "last-30-days", "lat": -17.547642303936474, "lon": 68.32800362719794, "alt_km": 378.416540218368, "timestamp": "2025-12-25T16:53:13.374359+00:00", "meta": {"OBJECT_NAME": "STARLINK-35874", "OBJECT_ID": "2025-288D", "EPOCH": "2025-12-25T06:00:04.000320", "MEAN_MOTION": 15.655799, "ECCENTRICITY": 0.00014856, "INCLINATION": 43.0002, "RA_OF_ASC_NODE": 90.8746, "ARG_OF_PERICENTER": 263.7997, "MEAN_ANOMALY": 32.1185, "EPHEMERIS_TYPE": 0, "CLASSIFICATION_TYPE": "U", "NORAD_CAT_ID": 66962, "ELEMENT_SET_NO": 999, "REV_AT_EPOCH": 384, "BSTAR": -0.02180268, "MEAN_MOTION_DOT": -0.01985405, "MEAN_MOTION_DDOT": 0}, "tle": {"line1": "1 66962U 25288D   25359.25004630 -.01985405  00000+0 -21803-1 0  9996", "line2": "2 66962  43.0002  90.8746 0001485 263.7997  32.1185 15.65579900  3847"}}, "geometry": {"type": "Point", "coordinates": [68.32800362719794, -17.547642303936474]}}, {"type": "Feature", "properties": {"norad_id": 66963, "name": "STARLINK-36133", "group": "last-30-days", "lat": -16.313827426682884, "lon": 69.85429777652924, "alt_km": 378.26447136852676, "timestamp": "2025-12-25T16:53:13.374382+00:00", "meta": {"OBJECT_NAME": "STARLINK-36133", "OBJECT_ID": "2025-288E", "EPOCH": "2025-12-25T06:00:04.000320", "MEAN_MOTION": 15.65577216, "ECCENTRICITY": 0.0001474, "INCLINATION": 43.0002, "RA_OF_ASC_NODE": 90.87, "ARG_OF_PERICENTER": 267.276, "MEAN_ANOMALY": 30.562, "EPHEMERIS_TYPE": 0, "CLASSIFICATION_TYPE": "U", "NORAD_CAT_ID": 66963, "ELEMENT_SET_NO": 999, "REV_AT_EPOCH": 384, "BSTAR": -0.02178995, "MEAN_MOTION_DOT": -0.01984186, "MEAN_MOTION_DDOT": 0}, "tle": {"line1": "1 66963U 25288E   25359.25004630 -.01984186  00000+0 -21790-1 0  9997", "line2": "2 66963  43.0002  90.8700 0001474 267.2760  30.5620 15.65577216  3847"}}, "geometry": {"type": "Point", "coordinates": [69.85429777652924, -16.313827426682884]}}, {"type": "Feature", "properties": {"norad_id": 66964, "name": "STARLINK-36104", "group": "last-30-days", "lat": -15.068463075989522, "lon": 71.36134876180225, "alt_km": 378.11575778587394, "timestamp": "2025-12-25T16:53:13.374393+00:00", "meta": {"OBJECT_NAME": "STARLINK-36104", "OBJECT_ID": "2025-288F", "EPOCH": "2025-12-25T06:00:04.000320", "MEAN_MOTION": 15.65577794, "ECCENTRICITY": 0.00015262, "INCLINATION": 43.0001, "RA_OF_ASC_NODE": 90.8647, "ARG_OF_PERICENTER": 269.3271, "MEAN_ANOMALY": 30.4257, "EPHEMERIS_TYPE": 0, "CLASSIFICATION_TYPE": "U", "NORAD_CAT_ID": 66964, "ELEMENT_SET_NO": 999, "REV_AT_EPOCH": 384, "BSTAR": -0.021780175, "MEAN_MOTION_DOT": -0.01983485, "MEAN_MOTION_DDOT": 0}, "tle": {"line1": "1 66964U 25288F   25359.25004630 -.01983485  00000+0 -21780-1 0  9998", "line2": "2 66964  43.0001  90.8647 0001526 269.3271  30.4257 15.65577794  3841"}}, "geometry": {"type": "Point", "coordinates": [71.36134876180225, -15.068463075989522]}}, {"type": "Feature", "properties": {"norad_id": 66965, "name": "STARLINK-36067", "group": "last-30-days", "lat": -13.81271800594627, "lon": 72.8522674998225, "alt_km": 378.12759240087416, "timestamp": "2025-12-25T16:53:13.374403+00:00", "meta": {"OBJECT_NAME": "STARLINK-36067", "OBJECT_ID": "2025-288G", "EPOCH": "2025-12-25T06:00:04.000320", "MEAN_MOTION": 15.65582341, "ECCENTRICITY": 0.00014436, "INCLINATION": 42.9996, "RA_OF_ASC_NODE": 90.8606, "ARG_OF_PERICENTER": 266.3798, "MEAN_ANOMALY": 35.2885, "EPHEMERIS_TYPE": 0, "CLASSIFICATION_TYPE": "U", "NORAD_CAT_ID": 66965, "ELEMENT_SET_NO": 999, "REV_AT_EPOCH": 384, "BSTAR": -0.02185213, "MEAN_MOTION_DOT": -0.01989505, "MEAN_MOTION_DDOT": 0}, "tle": {"line1": "1 66965U 25288G   25359.25004630 -.01989505  00000+0 -21852-1 0  9998", "line2": "2 66965  42.9996  90.8606 0001443 266.3798  35.2885 15.65582341  3841"}}, "geometry": {"type": "Point", "coordinates": [72.8522674998225, -13.81271800594627]}}, {"type": "Feature", "properties": {"norad_id": 66966, "name": "STARLINK-36139", "group": "last-30-days", "lat": -12.548964171787036, "lon": 74.32525397585117, "alt_km": 377.99510122215815, "timestamp": "2025-12-25T16:53:13.374413+00:00", "meta": {"OBJECT_NAME": "STARLINK-36139", "OBJECT_ID": "2025-288H", "EPOCH": "2025-12-25T06:00:04.000320", "MEAN_MOTION": 15.65580879, "ECCENTRICITY": 0.00013991, "INCLINATION": 42.9998, "RA_OF_ASC_NODE": 90.8553, "ARG_OF_PERICENTER": 268.9894, "MEAN_ANOMALY": 34.5998, "EPHEMERIS_TYPE": 0, "CLASSIFICATION_TYPE": "U", "NORAD_CAT_ID": 66966, "ELEMENT_SET_NO": 999, "REV_AT_EPOCH": 384, "BSTAR": -0.02187631, "MEAN_MOTION_DOT": -0.01991301, "MEAN_MOTION_DDOT": 0}, "tle": {"line1": "1 66966U 25288H   25359.25004630 -.01991301  00000+0 -21876-1 0  9992", "line2": "2 66966  42.9998  90.8553 0001399 268.9894  34.5998 15.65580879  3841"}}, "geometry": {"type": "Point", "coordinates": [74.32525397585117, -12.548964171787036]}}, {"type": "Feature", "properties": {"norad_id": 66967, "name": "STARLINK-36136", "group": "last-30-days", "lat": -11.275603562492705, "lon": 75.78559356850123, "alt_km": 377.88861008785534, "timestamp": "2025-12-25T16:53:13.374423+00:00", "meta": {"OBJECT_NAME": "STARLINK-36136", "OBJECT_ID": "2025-288J", "EPOCH": "2025-12-25T06:00:04.000320", "MEAN_MOTION": 15.65576636, "ECCENTRICITY": 0.00014613, "INCLINATION": 43.0001, "RA_OF_ASC_NODE": 90.85, "ARG_OF_PERICENTER": 268.5109, "MEAN_ANOMALY": 36.9964, "EPHEMERIS_TYPE": 0, "CLASSIFICATION_TYPE": "U", "NORAD_CAT_ID": 66967, "ELEMENT_SET_NO": 999, "REV_AT_EPOCH": 384, "BSTAR": -0.021791736, "MEAN_MOTION_DOT": -0.01984279, "MEAN_MOTION_DDOT": 0}, "tle": {"line1": "1 66967U 25288J   25359.25004630 -.01984279  00000+0 -21792-1 0  9996", "line2": "2 66967  43.0001  90.8500 0001461 268.5109  36.9964 15.65576636  3841"}}, "geometry": {"type": "Point", "coordinates": [75.78559356850123, -11.275603562492705]}}, {"type": "Feature", "properties": {"norad_id": 66968, "name": "STARLINK-36152", "group": "last-30-days", "lat": -9.995415454186316, "lon": 77.23327959143833, "alt_km": 377.7879694521598, "timestamp": "2025-12-25T16:53:13.374435+00:00", "meta": {"OBJECT_NAME": "STARLINK-36152", "OBJECT_ID": "2025-288K", "EPOCH": "2025-12-25T06:00:04.000320", "MEAN_MOTION": 15.655753, "ECCENTRICITY": 0.00015113, "INCLINATION": 42.9999, "RA_OF_ASC_NODE": 90.8456, "ARG_OF_PERICENTER": 267.835, "MEAN_ANOMALY": 39.5872, "EPHEMERIS_TYPE": 0, "CLASSIFICATION_TYPE": "U", "NORAD_CAT_ID": 66968, "ELEMENT_SET_NO": 999, "REV_AT_EPOCH": 384, "BSTAR": -0.021735536, "MEAN_MOTION_DOT": -0.01979721, "MEAN_MOTION_DDOT": 0}, "tle": {"line1": "1 66968U 25288K   25359.25004630 -.01979721  00000+0 -21736-1 0  9991", "line2": "2 66968  42.9999  90.8456 0001511 267.8350  39.5872 15.65575300  3846"}}, "geometry": {"type": "Point", "coordinates": [77.23327959143833, -9.995415454186316]}}]}